start=new Date('2023-06-07T00:00:00.000Z').valueOf();
sats=[{"REV_AT_EPOCH":"1556","EPHEMERIS_TYPE":"0","INCLINATION":"69.9980","REF_FRAME":"TEME","MEAN_ELEMENT_THEORY":"SGP4","SEMIMAJOR_AXIS":"6737.268","OBJECT_NAME":"STARLINK-5825","FILE":"3926571","ELEMENT_SET_NO":"999","PERIAPSIS":"356.618","GP_ID":"233361865","COUNTRY_CODE":"US","MEAN_MOTION_DOT":"0.00004205","MEAN_MOTION":"15.69918224","OBJECT_TYPE":"PAYLOAD","OBJECT_ID":"2023-028AU","ARG_OF_PERICENTER":"267.6616","APOAPSIS":"361.648","NORAD_CAT_ID":"55783","TLE_LINE2":"2 55783  69.9980 248.4653 0003733 267.6616  92.4152 15.69918224 15560","MEAN_ANOMALY":"92.4152","RCS_SIZE":"LARGE","RA_OF_ASC_NODE":"248.4653","CLASSIFICATION_TYPE":"U","LAUNCH_DATE":"2023-03-03","TLE_LINE1":"1 55783U 23028AU  23157.62497032  .00004205  00000-0  36730-4 0  9998","MEAN_MOTION_DDOT":"0.0000000000000","TIME_SYSTEM":"UTC","PERIOD":"91.725","SITE":"AFWTR","ECCENTRICITY":"0.00037330","BSTAR":"0.00003673000000","CENTER_NAME":"EARTH","EPOCH":"2023-06-06T14:59:57.435648","DECAY_DATE":null},{"MEAN_ELEMENT_THEORY":"SGP4","REF_FRAME":"TEME","INCLINATION":"69.9980","EPHEMERIS_TYPE":"0","REV_AT_EPOCH":"1556","OBJECT_TYPE":"PAYLOAD","MEAN_MOTION":"15.69931075","COUNTRY_CODE":"US","MEAN_MOTION_DOT":"0.00001234","GP_ID":"233360613","PERIAPSIS":"356.830","ELEMENT_SET_NO":"999","FILE":"3926571","SEMIMAJOR_AXIS":"6737.231","OBJECT_NAME":"STARLINK-5797","RA_OF_ASC_NODE":"248.4643","RCS_SIZE":"LARGE","MEAN_ANOMALY":"90.6669","NORAD_CAT_ID":"55784","TLE_LINE2":"2 55784  69.9980 248.4643 0003364 269.4141  90.6669 15.69931075 15565","APOAPSIS":"361.363","ARG_OF_PERICENTER":"269.4141","OBJECT_ID":"2023-028AV","EPOCH":"2023-06-06T14:59:21.347232","DECAY_DATE":null,"CENTER_NAME":"EARTH","ECCENTRICITY":"0.00033640","SITE":"AFWTR","BSTAR":"0.00001202700000","PERIOD":"91.724","TIME_SYSTEM":"UTC","MEAN_MOTION_DDOT":"0.0000000000000","TLE_LINE1":"1 55784U 23028AV  23157.62455263  .00001234  00000-0  12027-4 0  9991","LAUNCH_DATE":"2023-03-03","CLASSIFICATION_TYPE":"U"},{"PERIOD":"91.724","TIME_SYSTEM":"UTC","MEAN_MOTION_DDOT":"0.0000000000000","TLE_LINE1":"1 55785U 23028AW  23157.62486672  .00001660  00000-0  15570-4 0  9999","LAUNCH_DATE":"2023-03-03","CLASSIFICATION_TYPE":"U","DECAY_DATE":null,"EPOCH":"2023-06-06T14:59:48.484608","CENTER_NAME":"EARTH","BSTAR":"0.00001557000000","SITE":"AFWTR","ECCENTRICITY":"0.00035740","NORAD_CAT_ID":"55785","TLE_LINE2":"2 55785  69.9979 248.4647 0003574 268.7048  91.3738 15.69932961 15569","APOAPSIS":"361.499","ARG_OF_PERICENTER":"268.7048","OBJECT_ID":"2023-028AW","RA_OF_ASC_NODE":"248.4647","RCS_SIZE":"LARGE","MEAN_ANOMALY":"91.3738","GP_ID":"233360863","PERIAPSIS":"356.683","FILE":"3926571","ELEMENT_SET_NO":"999","SEMIMAJOR_AXIS":"6737.226","OBJECT_NAME":"STARLINK-5818","OBJECT_TYPE":"PAYLOAD","MEAN_MOTION":"15.69932961","MEAN_MOTION_DOT":"0.00001660","COUNTRY_CODE":"US","INCLINATION":"69.9979","EPHEMERIS_TYPE":"0","REV_AT_EPOCH":"1556","MEAN_ELEMENT_THEORY":"SGP4","REF_FRAME":"TEME"},{"NORAD_CAT_ID":"55786","TLE_LINE2":"2 55786  69.9980 248.4646 0003566 268.6299  91.4488 15.69933517 15560","OBJECT_ID":"2023-028AX","ARG_OF_PERICENTER":"268.6299","APOAPSIS":"361.492","RA_OF_ASC_NODE":"248.4646","MEAN_ANOMALY":"91.4488","RCS_SIZE":"LARGE","MEAN_MOTION_DDOT":"0.0000000000000","TLE_LINE1":"1 55786U 23028AX  23157.62444510  .00000367  00000-0  48194-5 0  9997","TIME_SYSTEM":"UTC","PERIOD":"91.724","CLASSIFICATION_TYPE":"U","LAUNCH_DATE":"2023-03-03","CENTER_NAME":"EARTH","DECAY_DATE":null,"EPOCH":"2023-06-06T14:59:12.056640","SITE":"AFWTR","BSTAR":"0.00000481940000","ECCENTRICITY":"0.00035660","REV_AT_EPOCH":"1556","EPHEMERIS_TYPE":"0","INCLINATION":"69.9980","MEAN_ELEMENT_THEORY":"SGP4","REF_FRAME":"TEME","GP_ID":"233361115","OBJECT_NAME":"STARLINK-5823","SEMIMAJOR_AXIS":"6737.224","FILE":"3926571","ELEMENT_SET_NO":"999","PERIAPSIS":"356.687","MEAN_MOTION":"15.69933517","OBJECT_TYPE":"PAYLOAD","COUNTRY_CODE":"US","MEAN_MOTION_DOT":"0.00000367"},{"COUNTRY_CODE":"US","MEAN_MOTION_DOT":"0.00000046","MEAN_MOTION":"15.69936528","OBJECT_TYPE":"PAYLOAD","OBJECT_NAME":"STARLINK-5811","SEMIMAJOR_AXIS":"6737.216","PERIAPSIS":"356.613","FILE":"3926571","ELEMENT_SET_NO":"999","GP_ID":"233361366","REF_FRAME":"TEME","MEAN_ELEMENT_THEORY":"SGP4","EPHEMERIS_TYPE":"0","REV_AT_EPOCH":"1556","INCLINATION":"69.9980","SITE":"AFWTR","BSTAR":"0.00000215060000","ECCENTRICITY":"0.00036620","CENTER_NAME":"EARTH","EPOCH":"2023-06-06T14:59:39.336576","DECAY_DATE":null,"CLASSIFICATION_TYPE":"U","LAUNCH_DATE":"2023-03-03","TIME_SYSTEM":"UTC","TLE_LINE1":"1 55787U 23028AY  23157.62476084  .00000046  00000-0  21506-5 0  9991","MEAN_MOTION_DDOT":"0.0000000000000","PERIOD":"91.723","MEAN_ANOMALY":"88.1452","RCS_SIZE":"LARGE","RA_OF_ASC_NODE":"248.4651","OBJECT_ID":"2023-028AY","APOAPSIS":"361.548","ARG_OF_PERICENTER":"271.9325","TLE_LINE2":"2 55787  69.9980 248.4651 0003662 271.9325  88.1452 15.69936528 15560","NORAD_CAT_ID":"55787"},{"PERIAPSIS":"356.705","ELEMENT_SET_NO":"999","FILE":"3926571","OBJECT_NAME":"STARLINK-5804","SEMIMAJOR_AXIS":"6737.217","GP_ID":"233360114","MEAN_MOTION_DOT":"-0.00000013","COUNTRY_CODE":"US","OBJECT_TYPE":"PAYLOAD","MEAN_MOTION":"15.69936198","INCLINATION":"69.9980","EPHEMERIS_TYPE":"0","REV_AT_EPOCH":"1556","REF_FRAME":"TEME","MEAN_ELEMENT_THEORY":"SGP4","LAUNCH_DATE":"2023-03-03","CLASSIFICATION_TYPE":"U","PERIOD":"91.723","TIME_SYSTEM":"UTC","TLE_LINE1":"1 55788U 23028AZ  23157.62465468 -.00000013  00000-0  16628-5 0  9990","MEAN_MOTION_DDOT":"0.0000000000000","ECCENTRICITY":"0.00035270","SITE":"AFWTR","BSTAR":"0.00000166280000","DECAY_DATE":null,"EPOCH":"2023-06-06T14:59:30.164352","CENTER_NAME":"EARTH","APOAPSIS":"361.458","ARG_OF_PERICENTER":"270.3812","OBJECT_ID":"2023-028AZ","TLE_LINE2":"2 55788  69.9980 248.4650 0003527 270.3812  89.6980 15.69936198 15569","NORAD_CAT_ID":"55788","RCS_SIZE":"LARGE","MEAN_ANOMALY":"89.6980","RA_OF_ASC_NODE":"248.4650"},{"TIME_SYSTEM":"UTC","MEAN_MOTION_DDOT":"0.0000000000000","TLE_LINE1":"1 55789U 23028BA  23157.75156450  .00000179  00000-0  32604-5 0  9997","PERIOD":"91.724","CLASSIFICATION_TYPE":"U","LAUNCH_DATE":"2023-03-03","CENTER_NAME":"EARTH","DECAY_DATE":null,"EPOCH":"2023-06-06T18:02:15.172800","ECCENTRICITY":"0.00037070","SITE":"AFWTR","BSTAR":"0.00000326040000","NORAD_CAT_ID":"55789","TLE_LINE2":"2 55789  69.9972 248.1036 0003707 267.2445  92.8327 15.69930814 15585","OBJECT_ID":"2023-028BA","APOAPSIS":"361.594","ARG_OF_PERICENTER":"267.2445","RA_OF_ASC_NODE":"248.1036","MEAN_ANOMALY":"92.8327","RCS_SIZE":"LARGE","GP_ID":"233360364","SEMIMAJOR_AXIS":"6737.232","OBJECT_NAME":"STARLINK-5815","PERIAPSIS":"356.599","ELEMENT_SET_NO":"999","FILE":"3926571","MEAN_MOTION":"15.69930814","OBJECT_TYPE":"PAYLOAD","COUNTRY_CODE":"US","MEAN_MOTION_DOT":"0.00000179","EPHEMERIS_TYPE":"0","REV_AT_EPOCH":"1558","INCLINATION":"69.9972","MEAN_ELEMENT_THEORY":"SGP4","REF_FRAME":"TEME"},{"INCLINATION":"69.9984","EPHEMERIS_TYPE":"0","REV_AT_EPOCH":"1556","MEAN_ELEMENT_THEORY":"SGP4","REF_FRAME":"TEME","GP_ID":"233361615","PERIAPSIS":"356.809","FILE":"3926571","ELEMENT_SET_NO":"999","OBJECT_NAME":"STARLINK-5813","SEMIMAJOR_AXIS":"6737.259","OBJECT_TYPE":"PAYLOAD","MEAN_MOTION":"15.69921223","MEAN_MOTION_DOT":"0.00001765","COUNTRY_CODE":"US","NORAD_CAT_ID":"55790","TLE_LINE2":"2 55790  69.9984 248.4634 0003437 268.4902  91.5900 15.69921223 15563","APOAPSIS":"361.440","ARG_OF_PERICENTER":"268.4902","OBJECT_ID":"2023-028BB","RA_OF_ASC_NODE":"248.4634","RCS_SIZE":"LARGE","MEAN_ANOMALY":"91.5900","PERIOD":"91.724","TIME_SYSTEM":"UTC","MEAN_MOTION_DDOT":"0.0000000000000","TLE_LINE1":"1 55790U 23028BB  23157.62424248  .00001765  00000-0  16449-4 0  9998","LAUNCH_DATE":"2023-03-03","CLASSIFICATION_TYPE":"U","EPOCH":"2023-06-06T14:58:54.550272","DECAY_DATE":null,"CENTER_NAME":"EARTH","ECCENTRICITY":"0.00034370","SITE":"AFWTR","BSTAR":"0.00001644900000"},{"REV_AT_EPOCH":"1558","EPHEMERIS_TYPE":"0","INCLINATION":"69.9979","REF_FRAME":"TEME","MEAN_ELEMENT_THEORY":"SGP4","SEMIMAJOR_AXIS":"6737.248","OBJECT_NAME":"STARLINK-5807","ELEMENT_SET_NO":"999","FILE":"3926571","PERIAPSIS":"356.853","GP_ID":"233361866","MEAN_MOTION_DOT":"0.00000874","COUNTRY_CODE":"US","MEAN_MOTION":"15.69925079","OBJECT_TYPE":"PAYLOAD","OBJECT_ID":"2023-028BC","ARG_OF_PERICENTER":"257.7977","APOAPSIS":"361.374","TLE_LINE2":"2 55791  69.9979 248.1051 0003355 257.7977 102.2843 15.69925079 15581","NORAD_CAT_ID":"55791","MEAN_ANOMALY":"102.2843","RCS_SIZE":"LARGE","RA_OF_ASC_NODE":"248.1051","CLASSIFICATION_TYPE":"U","LAUNCH_DATE":"2023-03-03","TLE_LINE1":"1 55791U 23028BC  23157.75177844  .00000874  00000-0  90362-5 0  9997","MEAN_MOTION_DDOT":"0.0000000000000","TIME_SYSTEM":"UTC","PERIOD":"91.724","SITE":"AFWTR","BSTAR":"0.00000903620000","ECCENTRICITY":"0.00033550","CENTER_NAME":"EARTH","EPOCH":"2023-06-06T18:02:33.657216","DECAY_DATE":null},{"CENTER_NAME":"EARTH","DECAY_DATE":null,"EPOCH":"2023-06-06T18:02:53.481696","SITE":"AFWTR","ECCENTRICITY":"0.00031950","BSTAR":"0.00001308900000","TIME_SYSTEM":"UTC","MEAN_MOTION_DDOT":"0.0000000000000","TLE_LINE1":"1 55914U 23037A   23157.75200789  .00000066  00000-0  13089-4 0  9992","PERIOD":"96.044","CLASSIFICATION_TYPE":"U","LAUNCH_DATE":"2023-03-17","RA_OF_ASC_NODE":"323.4627","MEAN_ANOMALY":"89.4236","RCS_SIZE":"LARGE","NORAD_CAT_ID":"55914","TLE_LINE2":"2 55914  69.9988 323.4627 0003195 270.6558  89.4236 14.99305586 13346","OBJECT_ID":"2023-037A","APOAPSIS":"571.262","ARG_OF_PERICENTER":"270.6558","MEAN_MOTION":"14.99305586","OBJECT_TYPE":"PAYLOAD","MEAN_MOTION_DOT":"0.00000066","COUNTRY_CODE":"US","GP_ID":"233361629","OBJECT_NAME":"STARLINK-5856","SEMIMAJOR_AXIS":"6947.178","PERIAPSIS":"566.823","FILE":"3926571","ELEMENT_SET_NO":"999","MEAN_ELEMENT_THEORY":"SGP4","REF_FRAME":"TEME","EPHEMERIS_TYPE":"0","REV_AT_EPOCH":"1334","INCLINATION":"69.9988"}];
